*******************************************************************************
JPL/HORIZONS              412 Elisabetha (A896 AB)         2020-Jun-22 08:59:32
Rec #:     412 (+COV) Soln.date: 2020-May-20_01:05:22   # obs: 2941 (1898-2020)
 
IAU76/J2000 helio. ecliptic osc. elements (au, days, deg., period=Julian yrs):
 
  EPOCH=  2456049.5 ! 2012-May-02.00 (TDB)         Residual RMS= .32281
   EC= .04345508581109296  QR= 2.643246484324675   TP= 2455928.6694559641
   OM= 106.5285196182565   W=  93.94896539653605   IN= 13.77490964877521
   A= 2.76332710060561     MA= 25.92581157834661   ADIST= 2.883407716886546
   PER= 4.59364            N= .214563388           ANGMOM= .028568481
   DAN= 2.76639            DDN= 2.74988            L= 200.5940396
   B= 13.7415624           MOID= 1.67972004        TP= 2012-Jan-02.1694559641
 
Asteroid physical parameters (km, seconds, rotational period in hours):
   GM= n.a.                RAD= 48.028             ROTPER= 19.635
   H= 9.2                  G= .150                 B-V= n.a.
                           ALBEDO= .044            STYP= C
 
ASTEROID comments: 
1: soln ref.= JPL#41, OCC=0
2: source=ORB
*******************************************************************************
 
 
*******************************************************************************
Ephemeris / WWW_USER Mon Jun 22 08:59:32 2020 Pasadena, USA      / Horizons
*******************************************************************************
Target body name: 412 Elisabetha (A896 AB)        {source: JPL#41}
Center body name: Solar System Barycenter (0)     {source: DE431}
Center-site name: BODY CENTER
*******************************************************************************
Start time      : A.D. 1969-Jun-28 00:00:00.0000 TDB
Stop  time      : A.D. 2071-May-04 00:00:00.0000 TDB
Step-size       : 7200 minutes
*******************************************************************************
Center geodetic : 0.00000000,0.00000000,0.0000000 {E-lon(deg),Lat(deg),Alt(km)}
Center cylindric: 0.00000000,0.00000000,0.0000000 {E-lon(deg),Dxy(km),Dz(km)}
Center radii    : (undefined)                                                  
Small perturbers: Yes                             {source: SB431-N16}
Output units    : AU-D
Output type     : GEOMETRIC cartesian states
Output format   : 2 (position and velocity)
Reference frame : Ecliptic of J2000.0
*******************************************************************************
Initial IAU76/J2000 heliocentric ecliptic osculating elements (au, days, deg.):
  EPOCH=  2456049.5 ! 2012-May-02.00 (TDB)         Residual RMS= .32281        
   EC= .04345508581109296  QR= 2.643246484324675   TP= 2455928.6694559641      
   OM= 106.5285196182565   W=  93.94896539653605   IN= 13.77490964877521       
  Equivalent ICRF heliocentric equatorial cartesian coordinates (au, au/d):
   X=-1.691518372061926E+00  Y=-2.026836403217333E+00  Z=-2.951411243672998E-01
  VX= 7.785138732735935E-03 VY=-6.176575237896503E-03 VZ=-4.116890431612865E-03
Asteroid physical parameters (km, seconds, rotational period in hours):        
   GM= n.a.                RAD= 48.028             ROTPER= 19.635              
   H= 9.2                  G= .150                 B-V= n.a.                   
                           ALBEDO= .044            STYP= C                     
*******************************************************************************
            JDTDB,            Calendar Date (TDB),        delta-T,                      X,                      Y,                      Z,                     VX,                     VY,                     VZ,
******************************************************************************************************************************************************************************************************************
$$SOE
2457060.500000000, A.D. 2015-Feb-07 00:00:00.0000,      67.184936,  5.035559942136490E-01,  2.756770364019038E+00, -3.101252630283173E-01, -9.762203232592555E-03,  1.623474031434909E-03,  2.182739000319359E-03,
2457065.500000000, A.D. 2015-Feb-12 00:00:00.0000,      67.185049,  4.546648379419874E-01,  2.764431997562105E+00, -2.991609681322591E-01, -9.793731799712227E-03,  1.441031583943924E-03,  2.202865223902670E-03,
2457070.500000000, A.D. 2015-Feb-17 00:00:00.0000,      67.185157,  4.056239700090331E-01,  2.771179246257125E+00, -2.880977557081462E-01, -9.822084114927517E-03,  1.257728999361167E-03,  2.222304500043804E-03,
2457075.500000000, A.D. 2015-Feb-22 00:00:00.0000,      67.185256,  3.564493278119945E-01,  2.777007943618447E+00, -2.769390830676703E-01, -9.847237842849505E-03,  1.073620076080993E-03,  2.241047818708132E-03,
2457080.500000000, A.D. 2015-Feb-27 00:00:00.0000,      67.185345,  3.071569586127539E-01,  2.781914193927959E+00, -2.656884522722620E-01, -9.869171376404876E-03,  8.887593224080123E-04,  2.259086290853146E-03,
2457085.500000000, A.D. 2015-Mar-04 00:00:00.0000,      67.185422,  2.577630158449322E-01,  2.785894375779429E+00, -2.543494095157326E-01, -9.887863857425039E-03,  7.032019543774456E-04,  2.276411153411417E-03,
2457090.500000000, A.D. 2015-Mar-09 00:00:00.0000,      67.185487,  2.082837553173987E-01,  2.788945145610444E+00, -2.429255444816426E-01, -9.903295197464494E-03,  5.170038929556624E-04,  2.293013774418559E-03,
2457095.500000000, A.D. 2015-Mar-14 00:00:00.0000,      67.185543,  1.587355313132361E-01,  2.791063441218471E+00, -2.314204896746235E-01, -9.915446098797635E-03,  3.302217604556659E-04,  2.308885658308504E-03,
2457100.500000000, A.D. 2015-Mar-19 00:00:00.0000,      67.185588,  1.091347925832282E-01,  2.792246485256623E+00, -2.198379197247452E-01, -9.924298075627383E-03,  1.429128759693409E-04,  2.324018451404954E-03,
2457105.500000000, A.D. 2015-Mar-24 00:00:00.0000,      67.185622,  5.949807823253214E-02,  2.792491788703802E+00, -2.081815506638954E-01, -9.929833475629842E-03, -4.486475032372815E-05,  2.338403947624942E-03,
2457110.500000000, A.D. 2015-Mar-29 00:00:00.0000,      67.185642,  9.842013498413307E-03,  2.791797154303508E+00, -1.964551391731241E-01, -9.932035502015473E-03, -2.330524239931697E-04,  2.352034094386447E-03,
2457115.500000000, A.D. 2015-Apr-03 00:00:00.0000,      67.185649, -3.981669458397416E-02,  2.790160679965911E+00, -1.846624818000243E-01, -9.930888236268733E-03, -4.215907741740409E-04,  2.364900998676641E-03,
2457120.500000000, A.D. 2015-Apr-08 00:00:00.0000,      67.185644, -8.946126163134760E-02,  2.787580762128905E+00, -1.728074141454805E-01, -9.926376661627731E-03, -6.104197621064908E-04,  2.376996933225179E-03,
2457125.500000000, A.D. 2015-Apr-13 00:00:00.0000,      67.185627, -1.390748304811911E-01,  2.784056099075377E+00, -1.608938100194290E-01, -9.918486687234433E-03, -7.994786900541797E-04,  2.388314342718277E-03,
2457130.500000000, A.D. 2015-Apr-18 00:00:00.0000,      67.185600, -1.886404758826852E-01,  2.779585694205622E+00, -1.489255805655635E-01, -9.907205172742897E-03, -9.887062102750658E-04,  2.398845849995133E-03,
2457135.500000000, A.D. 2015-Apr-23 00:00:00.0000,      67.185562, -2.381412093108068E-01,  2.774168859265075E+00, -1.369066733551842E-01, -9.892519952865749E-03, -1.178040333978064E-03,  2.408584262198171E-03,
2457140.500000000, A.D. 2015-Apr-28 00:00:00.0000,      67.185511, -2.875599839018155E-01,  2.767805217525580E+00, -1.248410714501761E-01, -9.874419861372411E-03, -1.367418441184826E-03,  2.417522577012993E-03,
2457145.500000000, A.D. 2015-May-03 00:00:00.0000,      67.185447, -3.368796995084619E-01,  2.760494706912807E+00, -1.127327924341055E-01, -9.852894755171598E-03, -1.556777292410701E-03,  2.425653989188461E-03,
2457150.500000000, A.D. 2015-May-08 00:00:00.0000,      67.185373, -3.860832078776166E-01,  2.752237583072580E+00, -1.005858874102565E-01, -9.827935539191677E-03, -1.746053041152958E-03,  2.432971897196200E-03,
2457155.500000000, A.D. 2015-May-13 00:00:00.0000,      67.185290, -4.351533179530436E-01,  2.743034422374771E+00, -8.840443996644419E-02, -9.799534191401109E-03, -1.935181246421312E-03,  2.439469909857433E-03,
2457160.500000000, A.D. 2015-May-18 00:00:00.0000,      67.185200, -4.840728013023949E-01,  2.732886124852949E+00, -7.619256510660523E-02, -9.767683787477940E-03, -2.124096886050480E-03,  2.445141853026760E-03,
2457165.500000000, A.D. 2015-May-23 00:00:00.0000,      67.185101, -5.328243976670882E-01,  2.721793917074287E+00, -6.395440814863514E-02, -9.732378525340903E-03, -2.312734371306346E-03,  2.449981776414229E-03,
2457170.500000000, A.D. 2015-May-28 00:00:00.0000,      67.184993, -5.813908206349422E-01,  2.709759354933244E+00, -5.169414358778706E-02, -9.693613749736166E-03, -2.501027562752506E-03,  2.453983960535097E-03,
2457175.500000000, A.D. 2015-Jun-02 00:00:00.0000,      67.184877, -6.297547634359369E-01,  2.696784326363010E+00, -3.941597392505788E-02, -9.651385976896246E-03, -2.688909787258692E-03,  2.457142923757431E-03,
2457180.500000000, A.D. 2015-Jun-07 00:00:00.0000,      67.184754, -6.778989048613656E-01,  2.682871053959187E+00, -2.712412846014238E-02, -9.605692919227821E-03, -2.876313856094811E-03,  2.459453429427225E-03,
2457185.500000000, A.D. 2015-Jun-12 00:00:00.0000,      67.184627, -7.258059153063826E-01,  2.668022097510324E+00, -1.482286204859606E-02, -9.556533509974426E-03, -3.063172084096531E-03,  2.460910493057584E-03,
2457190.500000000, A.D. 2015-Jun-17 00:00:00.0000,      67.184498, -7.734584629356955E-01,  2.652240356429926E+00, -2.516453822909126E-03, -9.503907927802575E-03, -3.249416309909555E-03,  2.461509389572248E-03,
2457195.500000000, A.D. 2015-Jun-22 00:00:00.0000,      67.184364, -8.208392199718931E-01,  2.635529072084521E+00,  9.790794122749731E-03, -9.447817621261489E-03, -3.434977917328988E-03,  2.461245660594831E-03,
